{
  "norad_id": 63819,
  "name": "STARLINK-34055",
  "history": [
    {
      "epoch": "2026-03-28T15:58:27.141024",
      "apogee_km": 484.3323126246096,
      "perigee_km": 481.5074782796146,
      "latitude_deg": 26.798951331115788,
      "longitude_deg": -94.20317663997412,
      "semi_major_axis_km": 6861.056895452112,
      "eccentricity": 0.00020586,
      "inclination_deg": 43.0037,
      "raan_deg": 65.6276,
      "arg_perigee_deg": 288.1546,
      "mean_anomaly_deg": 71.9081,
      "mean_motion_rev_day": 15.27623149
    }
  ]
}