{"fetched_at":"2026-03-29T16:36:15Z","count":15609,"tles":[{"name":"STARLINK-34055","line1":"1 63819U 25092R   26087.66559191  .00027545  00000+0  10054-2 0  9994","line2":"2 63819  43.0037  65.6276 0002058 288.1546  71.9081 15.27623149 51515","category":"Starlink"}]}